SAOCOM 1A               
1 43641U 18076A   26097.58751865 -.00000155  00000+0 -12882-4 0  9996
2 43641  97.8901 285.3522 0001353  85.8166 274.3202 14.82151588405649
H-2A R/B                
1 43682U 18084L   26097.35047624  .00023137  00000+0  52755-3 0  9991
2 43682  98.8680 320.8874 0023182 284.0250  75.8415 15.42658590410193
SAOCOM 1B               
1 46265U 20059A   26097.61876591  .00000991  00000+0  13109-3 0  9991
2 46265  97.8889 284.4791 0001471  86.3383 273.7999 14.82156460303035
CSS (TIANHE)            
1 48274U 21035A   26097.24265619  .00030960  00000+0  34619-3 0  9998
2 48274  41.4683  34.2394 0003908 149.0063 211.1007 15.62057309282070
COSMOS 2550             
1 48865U 21056A   26096.88261823 -.00000182  00000+0  29521-6 0  9992
2 48865  67.1413 315.6012 0008271 269.8278  90.1929 15.33838997267789
CZ-2C R/B               
1 52794U 22058K   26097.61623579  .00032546  00000+0  43734-3 0  9990
2 52794  50.1864 169.2433 0040922 324.9180  34.9097 15.56555355214638
CZ-2C R/B               
1 54039U 22132E   26097.49777484  .00051588  00000+0  52676-3 0  9990
2 54039  97.2954 101.7499 0015084 352.4099   7.6930 15.64770092194875
GSLV R/B                
1 54149U 22138AN  26097.40002759  .00002279  00000+0  19479-3 0  9992
2 54149  87.3843 156.7483 0023341  52.3498 307.9847 14.96965267188220
XRISM                   
1 57800U 23137A   26097.03342856  .00006106  00000+0  34260-3 0  9991
2 57800  31.0016 100.2848 0007780 323.2469  36.7635 15.11851882142082
ACS3                    
1 59588U 24077B   26097.57312172  .00010951  00000+0  85427-2 0  9990
2 59588  97.1927  32.1956 0073150  12.4073 347.8871 13.91077727 98213
SZ-21 MODULE            
1 66515U 25246C   26097.51266071  .00039687  00000+0  30856-3 0  9991
2 66515  41.4753  25.6258 0003782 241.5464 118.4997 15.70977813 22600
