[{"OBJECT_NAME":"SAOCOM 1A","OBJECT_ID":"2018-076A","EPOCH":"2026-04-07T14:06:01.611360","MEAN_MOTION":14.82151588,"ECCENTRICITY":0.00013534,"INCLINATION":97.8901,"RA_OF_ASC_NODE":285.3522,"ARG_OF_PERICENTER":85.8166,"MEAN_ANOMALY":274.3202,"EPHEMERIS_TYPE":0,"CLASSIFICATION_TYPE":"U","NORAD_CAT_ID":43641,"ELEMENT_SET_NO":999,"REV_AT_EPOCH":40564,"BSTAR":-1.2882093e-5,"MEAN_MOTION_DOT":-1.55e-6,"MEAN_MOTION_DDOT":0},{"OBJECT_NAME":"H-2A R/B","OBJECT_ID":"2018-084L","EPOCH":"2026-04-07T08:24:41.147136","MEAN_MOTION":15.4265859,"ECCENTRICITY":0.00231827,"INCLINATION":98.868,"RA_OF_ASC_NODE":320.8874,"ARG_OF_PERICENTER":284.025,"MEAN_ANOMALY":75.8415,"EPHEMERIS_TYPE":0,"CLASSIFICATION_TYPE":"U","NORAD_CAT_ID":43682,"ELEMENT_SET_NO":999,"REV_AT_EPOCH":41019,"BSTAR":0.00052754524,"MEAN_MOTION_DOT":0.00023137,"MEAN_MOTION_DDOT":0},{"OBJECT_NAME":"SAOCOM 1B","OBJECT_ID":"2020-059A","EPOCH":"2026-04-07T14:51:01.374624","MEAN_MOTION":14.8215646,"ECCENTRICITY":0.00014719,"INCLINATION":97.8889,"RA_OF_ASC_NODE":284.4791,"ARG_OF_PERICENTER":86.3383,"MEAN_ANOMALY":273.7999,"EPHEMERIS_TYPE":0,"CLASSIFICATION_TYPE":"U","NORAD_CAT_ID":46265,"ELEMENT_SET_NO":999,"REV_AT_EPOCH":30303,"BSTAR":0.00013108972,"MEAN_MOTION_DOT":9.91e-6,"MEAN_MOTION_DDOT":0},{"OBJECT_NAME":"CSS (TIANHE)","OBJECT_ID":"2021-035A","EPOCH":"2026-04-07T05:49:25.494816","MEAN_MOTION":15.62057309,"ECCENTRICITY":0.00039086,"INCLINATION":41.4683,"RA_OF_ASC_NODE":34.2394,"ARG_OF_PERICENTER":149.0063,"MEAN_ANOMALY":211.1007,"EPHEMERIS_TYPE":0,"CLASSIFICATION_TYPE":"U","NORAD_CAT_ID":48274,"ELEMENT_SET_NO":999,"REV_AT_EPOCH":28207,"BSTAR":0.00034619354,"MEAN_MOTION_DOT":0.0003096,"MEAN_MOTION_DDOT":0},{"OBJECT_NAME":"COSMOS 2550","OBJECT_ID":"2021-056A","EPOCH":"2026-04-06T21:10:58.215072","MEAN_MOTION":15.33838997,"ECCENTRICITY":0.00082712,"INCLINATION":67.1413,"RA_OF_ASC_NODE":315.6012,"ARG_OF_PERICENTER":269.8278,"MEAN_ANOMALY":90.1929,"EPHEMERIS_TYPE":0,"CLASSIFICATION_TYPE":"U","NORAD_CAT_ID":48865,"ELEMENT_SET_NO":999,"REV_AT_EPOCH":26778,"BSTAR":2.95211e-7,"MEAN_MOTION_DOT":-1.82e-6,"MEAN_MOTION_DDOT":0},{"OBJECT_NAME":"CZ-2C R/B","OBJECT_ID":"2022-058K","EPOCH":"2026-04-07T14:47:22.772256","MEAN_MOTION":15.56555355,"ECCENTRICITY":0.00409226,"INCLINATION":50.1864,"RA_OF_ASC_NODE":169.2433,"ARG_OF_PERICENTER":324.918,"MEAN_ANOMALY":34.9097,"EPHEMERIS_TYPE":0,"CLASSIFICATION_TYPE":"U","NORAD_CAT_ID":52794,"ELEMENT_SET_NO":999,"REV_AT_EPOCH":21463,"BSTAR":0.00043734122,"MEAN_MOTION_DOT":0.00032546,"MEAN_MOTION_DDOT":0},{"OBJECT_NAME":"CZ-2C R/B","OBJECT_ID":"2022-132E","EPOCH":"2026-04-07T11:56:47.746176","MEAN_MOTION":15.64770092,"ECCENTRICITY":0.00150848,"INCLINATION":97.2954,"RA_OF_ASC_NODE":101.7499,"ARG_OF_PERICENTER":352.4099,"MEAN_ANOMALY":7.693,"EPHEMERIS_TYPE":0,"CLASSIFICATION_TYPE":"U","NORAD_CAT_ID":54039,"ELEMENT_SET_NO":999,"REV_AT_EPOCH":19487,"BSTAR":0.0005267631,"MEAN_MOTION_DOT":0.00051588,"MEAN_MOTION_DDOT":0},{"OBJECT_NAME":"GSLV R/B","OBJECT_ID":"2022-138AN","EPOCH":"2026-04-07T09:36:02.383776","MEAN_MOTION":14.96965267,"ECCENTRICITY":0.00233417,"INCLINATION":87.3843,"RA_OF_ASC_NODE":156.7483,"ARG_OF_PERICENTER":52.3498,"MEAN_ANOMALY":307.9847,"EPHEMERIS_TYPE":0,"CLASSIFICATION_TYPE":"U","NORAD_CAT_ID":54149,"ELEMENT_SET_NO":999,"REV_AT_EPOCH":18822,"BSTAR":0.00019478843,"MEAN_MOTION_DOT":2.279e-5,"MEAN_MOTION_DDOT":0},{"OBJECT_NAME":"XRISM","OBJECT_ID":"2023-137A","EPOCH":"2026-04-07T00:48:08.227584","MEAN_MOTION":15.11851882,"ECCENTRICITY":0.00077806,"INCLINATION":31.0016,"RA_OF_ASC_NODE":100.2848,"ARG_OF_PERICENTER":323.2469,"MEAN_ANOMALY":36.7635,"EPHEMERIS_TYPE":0,"CLASSIFICATION_TYPE":"U","NORAD_CAT_ID":57800,"ELEMENT_SET_NO":999,"REV_AT_EPOCH":14208,"BSTAR":0.00034259529,"MEAN_MOTION_DOT":6.106e-5,"MEAN_MOTION_DDOT":0},{"OBJECT_NAME":"ACS3","OBJECT_ID":"2024-077B","EPOCH":"2026-04-07T13:45:17.716608","MEAN_MOTION":13.91077727,"ECCENTRICITY":0.007315,"INCLINATION":97.1927,"RA_OF_ASC_NODE":32.1956,"ARG_OF_PERICENTER":12.4073,"MEAN_ANOMALY":347.8871,"EPHEMERIS_TYPE":0,"CLASSIFICATION_TYPE":"U","NORAD_CAT_ID":59588,"ELEMENT_SET_NO":999,"REV_AT_EPOCH":9821,"BSTAR":0.0085426558,"MEAN_MOTION_DOT":0.00010951,"MEAN_MOTION_DDOT":0},{"OBJECT_NAME":"SZ-21 MODULE","OBJECT_ID":"2025-246C","EPOCH":"2026-04-07T12:18:13.885344","MEAN_MOTION":15.70977813,"ECCENTRICITY":0.00037823,"INCLINATION":41.4753,"RA_OF_ASC_NODE":25.6258,"ARG_OF_PERICENTER":241.5464,"MEAN_ANOMALY":118.4997,"EPHEMERIS_TYPE":0,"CLASSIFICATION_TYPE":"U","NORAD_CAT_ID":66515,"ELEMENT_SET_NO":999,"REV_AT_EPOCH":2260,"BSTAR":0.0003085559,"MEAN_MOTION_DOT":0.00039687,"MEAN_MOTION_DDOT":0}]
